ONEWEB-0504             
1 54122U 22138K   26192.84454126  .00000035  00000+0  55727-4 0  9991
2 54122  87.9199 300.0558 0001854 110.6900 249.4432 13.19726633180081
ONEWEB-0505             
1 54123U 22138L   26192.84136347 -.00000021  00000+0 -83993-4 0  9997
2 54123  87.9192 300.0582 0001907 113.6656 246.4677 13.19727415180067
ONEWEB-0506             
1 54124U 22138M   26192.81611932  .00000018  00000+0  13435-4 0  9991
2 54124  87.9193 300.0611 0001974 109.6355 250.4991 13.19725344180059
ONEWEB-0507             
1 54125U 22138N   26192.83664084 -.00000045  00000+0 -14451-3 0  9990
2 54125  87.9186 300.0668 0002008 105.7694 254.3661 13.19726391180102
ONEWEB-0508             
1 54126U 22138P   26192.83348733 -.00000013  00000+0 -65571-4 0  9996
2 54126  87.9199 300.0649 0002213 106.2644 253.8733 13.19725323180080
ONEWEB-0509             
1 54127U 22138Q   26192.80820234  .00000060  00000+0  11761-3 0  9996
2 54127  87.9195 300.0642 0001997 102.3575 257.7781 13.19724496180051
ONEWEB-0510             
1 54128U 22138R   26192.75295978  .00000049  00000+0  88326-4 0  9991
2 54128  87.9184 269.5409 0002039  85.4324 274.7042 13.20770293182522
ONEWEB-0511             
1 54129U 22138S   26192.80503386 -.00000250  00000+0 -65561-3 0  9994
2 54129  87.9191 300.0663 0001738 102.2489 257.8838 13.19724524180087
ONEWEB-0512             
1 54130U 22138T   26192.79714535  .00000037  00000+0  60932-4 0  9993
2 54130  87.9184 300.0713 0001853 109.4203 250.7130 13.19726467180050
ONEWEB-0513             
1 54131U 22138U   26192.79264222  .00000018  00000+0  11562-4 0  9991
2 54131  87.9191 300.0133 0001442 124.8081 235.3188 13.20269316179961
ONEWEB-0514             
1 54132U 22138V   26192.81294599 -.00000035  00000+0 -12099-3 0  9991
2 54132  87.9202 300.0638 0001989 104.0896 256.0458 13.19725884180074
ONEWEB-0515             
1 54133U 22138W   26192.73951415 -.00000114  00000+0 -31199-3 0  9990
2 54133  87.9192 269.5394 0002878  89.0696 271.0767 13.20771018182545
ONEWEB-0516             
1 54134U 22138X   26192.86347953 -.00000123  00000+0 -34024-3 0  9991
2 54134  87.9186 300.0580 0002131 102.6729 257.4642 13.19725026180081
ONEWEB-0517             
1 54135U 22138Y   26192.84296130 -.00000075  00000+0 -22006-3 0  9993
2 54135  87.9192 300.0567 0001691  93.5963 266.5363 13.19726275180080
ONEWEB-0518             
1 54136U 22138Z   26192.86190648  .00000028  00000+0  36913-4 0  9992
2 54136  87.9186 300.0605 0002211 101.4179 258.7202 13.19723754180088
ONEWEB-0519             
1 54137U 22138AA  26192.81135060 -.00000203  00000+0 -53845-3 0  9994
2 54137  87.9191 300.0641 0001835  96.4643 263.6698 13.19725535180088
